[
  {
    "OBJECT_NAME": "MOZHAYETS 4 (RS-22)",
    "OBJECT_ID": "2003-042A",
    "EPOCH": "2025-05-31T20:21:59.817600",
    "MEAN_MOTION": 14.7233201,
    "ECCENTRICITY": 0.0012258,
    "INCLINATION": 98.3276,
    "RA_OF_ASC_NODE": 321.0899,
    "ARG_OF_PERICENTER": 43.0164,
    "MEAN_ANOMALY": 86.8447,
    "EPHEMERIS_TYPE": 0,
    "CLASSIFICATION_TYPE": "U",
    "NORAD_CAT_ID": 27939,
    "ELEMENT_SET_NO": 999,
    "REV_AT_EPOCH": 15954,
    "BSTAR": 0.00020417,
    "MEAN_MOTION_DOT": 1.239e-05,
    "MEAN_MOTION_DDOT": 0
  },
  {
    "OBJECT_NAME": "CUBESAT XI-V",
    "OBJECT_ID": "2005-043F",
    "EPOCH": "2025-05-31T08:02:49.049088",
    "MEAN_MOTION": 14.7098294,
    "ECCENTRICITY": 0.001392,
    "INCLINATION": 98.2488,
    "RA_OF_ASC_NODE": 295.5706,
    "ARG_OF_PERICENTER": 341.2667,
    "MEAN_ANOMALY": 18.8025,
    "EPHEMERIS_TYPE": 0,
    "CLASSIFICATION_TYPE": "U",
    "NORAD_CAT_ID": 28895,
    "ELEMENT_SET_NO": 999,
    "REV_AT_EPOCH": 4558,
    "BSTAR": 0.00026181,
    "MEAN_MOTION_DOT": 1.556e-05,
    "MEAN_MOTION_DDOT": 0
  },
  {
    "OBJECT_NAME": "CUTE-1.7+APD II (CO-65)",
    "OBJECT_ID": "2008-021C",
    "EPOCH": "2025-05-31T19:48:32.168448",
    "MEAN_MOTION": 15.04339308,
    "ECCENTRICITY": 0.0008111,
    "INCLINATION": 97.7843,
    "RA_OF_ASC_NODE": 122.9255,
    "ARG_OF_PERICENTER": 236.1733,
    "MEAN_ANOMALY": 123.8721,
    "EPHEMERIS_TYPE": 0,
    "CLASSIFICATION_TYPE": "U",
    "NORAD_CAT_ID": 32785,
    "ELEMENT_SET_NO": 999,
    "REV_AT_EPOCH": 92783,
    "BSTAR": 0.00028351,
    "MEAN_MOTION_DOT": 3.892e-05,
    "MEAN_MOTION_DDOT": 0
  },
  {
    "OBJECT_NAME": "SEEDS II (CO-66)",
    "OBJECT_ID": "2008-021J",
    "EPOCH": "2025-05-31T11:29:34.990080",
    "MEAN_MOTION": 15.18484563,
    "ECCENTRICITY": 0.0003708,
    "INCLINATION": 97.7278,
    "RA_OF_ASC_NODE": 131.3193,
    "ARG_OF_PERICENTER": 166.0784,
    "MEAN_ANOMALY": 194.0552,
    "EPHEMERIS_TYPE": 0,
    "CLASSIFICATION_TYPE": "U",
    "NORAD_CAT_ID": 32791,
    "ELEMENT_SET_NO": 999,
    "REV_AT_EPOCH": 92911,
    "BSTAR": 0.00054578,
    "MEAN_MOTION_DOT": 0.00011191,
    "MEAN_MOTION_DDOT": 0
  },
  {
    "OBJECT_NAME": "YUBILEINY (RS-30)",
    "OBJECT_ID": "2008-025A",
    "EPOCH": "2025-05-31T20:54:35.043552",
    "MEAN_MOTION": 12.43164761,
    "ECCENTRICITY": 0.0020314,
    "INCLINATION": 82.5038,
    "RA_OF_ASC_NODE": 232.5919,
    "ARG_OF_PERICENTER": 67.4813,
    "MEAN_ANOMALY": 292.8415,
    "EPHEMERIS_TYPE": 0,
    "CLASSIFICATION_TYPE": "U",
    "NORAD_CAT_ID": 32953,
    "ELEMENT_SET_NO": 999,
    "REV_AT_EPOCH": 77245,
    "BSTAR": 0.00013709,
    "MEAN_MOTION_DOT": 2.9e-07,
    "MEAN_MOTION_DDOT": 0
  },
  {
    "OBJECT_NAME": "KKS-1 (KISEKI)",
    "OBJECT_ID": "2009-002H",
    "EPOCH": "2025-05-31T12:59:30.225120",
    "MEAN_MOTION": 14.81592732,
    "ECCENTRICITY": 0.000963,
    "INCLINATION": 98.121,
    "RA_OF_ASC_NODE": 63.4843,
    "ARG_OF_PERICENTER": 86.3442,
    "MEAN_ANOMALY": 273.8871,
    "EPHEMERIS_TYPE": 0,
    "CLASSIFICATION_TYPE": "U",
    "NORAD_CAT_ID": 33499,
    "ELEMENT_SET_NO": 999,
    "REV_AT_EPOCH": 87965,
    "BSTAR": 0.00019468,
    "MEAN_MOTION_DOT": 1.475e-05,
    "MEAN_MOTION_DDOT": 0
  },
  {
    "OBJECT_NAME": "SWISSCUBE",
    "OBJECT_ID": "2009-051B",
    "EPOCH": "2025-05-31T14:12:55.585728",
    "MEAN_MOTION": 14.61313394,
    "ECCENTRICITY": 0.0006309,
    "INCLINATION": 98.4314,
    "RA_OF_ASC_NODE": 47.6584,
    "ARG_OF_PERICENTER": 330.6894,
    "MEAN_ANOMALY": 29.3951,
    "EPHEMERIS_TYPE": 0,
    "CLASSIFICATION_TYPE": "U",
    "NORAD_CAT_ID": 35932,
    "ELEMENT_SET_NO": 999,
    "REV_AT_EPOCH": 83340,
    "BSTAR": 0.00023815,
    "MEAN_MOTION_DOT": 1.127e-05,
    "MEAN_MOTION_DDOT": 0
  },
  {
    "OBJECT_NAME": "BEESAT-1",
    "OBJECT_ID": "2009-051C",
    "EPOCH": "2025-05-31T13:30:50.750496",
    "MEAN_MOTION": 14.6073105,
    "ECCENTRICITY": 0.0005083,
    "INCLINATION": 98.4244,
    "RA_OF_ASC_NODE": 47.9988,
    "ARG_OF_PERICENTER": 348.1192,
    "MEAN_ANOMALY": 11.9887,
    "EPHEMERIS_TYPE": 0,
    "CLASSIFICATION_TYPE": "U",
    "NORAD_CAT_ID": 35933,
    "ELEMENT_SET_NO": 999,
    "REV_AT_EPOCH": 83345,
    "BSTAR": 0.00020453,
    "MEAN_MOTION_DOT": 9.48e-06,
    "MEAN_MOTION_DDOT": 0
  },
  {
    "OBJECT_NAME": "ITUPSAT1",
    "OBJECT_ID": "2009-051E",
    "EPOCH": "2025-05-31T13:44:30.264000",
    "MEAN_MOTION": 14.59530103,
    "ECCENTRICITY": 0.0007474,
    "INCLINATION": 98.4339,
    "RA_OF_ASC_NODE": 47.5568,
    "ARG_OF_PERICENTER": 352.3166,
    "MEAN_ANOMALY": 7.7918,
    "EPHEMERIS_TYPE": 0,
    "CLASSIFICATION_TYPE": "U",
    "NORAD_CAT_ID": 35935,
    "ELEMENT_SET_NO": 999,
    "REV_AT_EPOCH": 83305,
    "BSTAR": 0.00019591,
    "MEAN_MOTION_DOT": 8.82e-06,
    "MEAN_MOTION_DDOT": 0
  },
  {
    "OBJECT_NAME": "XIWANG-1 (HOPE-1)",
    "OBJECT_ID": "2009-072B",
    "EPOCH": "2025-05-31T13:46:52.096512",
    "MEAN_MOTION": 13.16424798,
    "ECCENTRICITY": 0.0007885,
    "INCLINATION": 100.3484,
    "RA_OF_ASC_NODE": 107.5408,
    "ARG_OF_PERICENTER": 30.3808,
    "MEAN_ANOMALY": 329.7761,
    "EPHEMERIS_TYPE": 0,
    "CLASSIFICATION_TYPE": "U",
    "NORAD_CAT_ID": 36122,
    "ELEMENT_SET_NO": 999,
    "REV_AT_EPOCH": 74279,
    "BSTAR": 4.8772e-05,
    "MEAN_MOTION_DOT": -2.5e-07,
    "MEAN_MOTION_DDOT": 0
  },
  {
    "OBJECT_NAME": "O/OREOS (USA 219)",
    "OBJECT_ID": "2010-062C",
    "EPOCH": "2025-05-31T13:51:08.333856",
    "MEAN_MOTION": 14.91421372,
    "ECCENTRICITY": 0.0012966,
    "INCLINATION": 71.971,
    "RA_OF_ASC_NODE": 223.1865,
    "ARG_OF_PERICENTER": 71.1029,
    "MEAN_ANOMALY": 289.1545,
    "EPHEMERIS_TYPE": 0,
    "CLASSIFICATION_TYPE": "U",
    "NORAD_CAT_ID": 37224,
    "ELEMENT_SET_NO": 999,
    "REV_AT_EPOCH": 5970,
    "BSTAR": 0.00022076,
    "MEAN_MOTION_DOT": 2.148e-05,
    "MEAN_MOTION_DDOT": 0
  },
  {
    "OBJECT_NAME": "JUGNU",
    "OBJECT_ID": "2011-058B",
    "EPOCH": "2025-05-31T04:02:12.193152",
    "MEAN_MOTION": 14.13600198,
    "ECCENTRICITY": 0.0018704,
    "INCLINATION": 19.96,
    "RA_OF_ASC_NODE": 109.0019,
    "ARG_OF_PERICENTER": 177.3221,
    "MEAN_ANOMALY": 307.4636,
    "EPHEMERIS_TYPE": 0,
    "CLASSIFICATION_TYPE": "U",
    "NORAD_CAT_ID": 37839,
    "ELEMENT_SET_NO": 999,
    "REV_AT_EPOCH": 70490,
    "BSTAR": 8.4328e-05,
    "MEAN_MOTION_DOT": 4.28e-06,
    "MEAN_MOTION_DDOT": 0
  },
  {
    "OBJECT_NAME": "SRMSAT",
    "OBJECT_ID": "2011-058D",
    "EPOCH": "2025-05-31T11:17:02.503104",
    "MEAN_MOTION": 14.11432981,
    "ECCENTRICITY": 0.001171,
    "INCLINATION": 19.9706,
    "RA_OF_ASC_NODE": 209.6787,
    "ARG_OF_PERICENTER": 325.6305,
    "MEAN_ANOMALY": 62.57,
    "EPHEMERIS_TYPE": 0,
    "CLASSIFICATION_TYPE": "U",
    "NORAD_CAT_ID": 37841,
    "ELEMENT_SET_NO": 999,
    "REV_AT_EPOCH": 70382,
    "BSTAR": 7.0665e-05,
    "MEAN_MOTION_DOT": 3.95e-06,
    "MEAN_MOTION_DDOT": 0
  },
  {
    "OBJECT_NAME": "STRAND-1",
    "OBJECT_ID": "2013-009E",
    "EPOCH": "2025-05-31T11:35:34.828800",
    "MEAN_MOTION": 14.36811293,
    "ECCENTRICITY": 0.0007542,
    "INCLINATION": 98.3826,
    "RA_OF_ASC_NODE": 336.4183,
    "ARG_OF_PERICENTER": 295.5722,
    "MEAN_ANOMALY": 64.4684,
    "EPHEMERIS_TYPE": 0,
    "CLASSIFICATION_TYPE": "U",
    "NORAD_CAT_ID": 39090,
    "ELEMENT_SET_NO": 999,
    "REV_AT_EPOCH": 64224,
    "BSTAR": 0.00012099,
    "MEAN_MOTION_DOT": 3.15e-06,
    "MEAN_MOTION_DDOT": 0
  }
]