MOZHAYETS 4 (RS-22)     
1 27939U 03042A   25151.84860900  .00001239  00000+0  20417-3 0  9999
2 27939  98.3276 321.0899 0012258  43.0164  86.8447 14.72332010159549
CUBESAT XI-V            
1 28895U 05043F   25151.33528992  .00001556  00000+0  26181-3 0  9996
2 28895  98.2488 295.5706 0013920 341.2667  18.8025 14.70982940 45581
CUTE-1.7+APD II (CO-65) 
1 32785U 08021C   25151.82537232  .00003892  00000+0  28351-3 0  9995
2 32785  97.7843 122.9255 0008111 236.1733 123.8721 15.04339308927836
SEEDS II (CO-66)        
1 32791U 08021J   25151.47887720  .00011191  00000+0  54578-3 0  9994
2 32791  97.7278 131.3193 0003708 166.0784 194.0552 15.18484563929118
YUBILEINY (RS-30)       
1 32953U 08025A   25151.87123893  .00000029  00000+0  13709-3 0  9995
2 32953  82.5038 232.5919 0020314  67.4813 292.8415 12.43164761772451
KKS-1 (KISEKI)          
1 33499U 09002H   25151.54132205  .00001475  00000+0  19468-3 0  9992
2 33499  98.1210  63.4843 0009630  86.3442 273.8871 14.81592732879657
SWISSCUBE               
1 35932U 09051B   25151.59231002  .00001127  00000+0  23815-3 0  9995
2 35932  98.4314  47.6584 0006309 330.6894  29.3951 14.61313394833400
BEESAT-1                
1 35933U 09051C   25151.56308739  .00000948  00000+0  20453-3 0  9990
2 35933  98.4244  47.9988 0005083 348.1192  11.9887 14.60731050833459
ITUPSAT1                
1 35935U 09051E   25151.57257250  .00000882  00000+0  19591-3 0  9992
2 35935  98.4339  47.5568 0007474 352.3166   7.7918 14.59530103833058
XIWANG-1 (HOPE-1)       
1 36122U 09072B   25151.57421408 -.00000025  00000+0  48772-4 0  9996
2 36122 100.3484 107.5408 0007885  30.3808 329.7761 13.16424798742790
O/OREOS (USA 219)       
1 37224U 10062C   25151.57717979  .00002148  00000+0  22076-3 0  9997
2 37224  71.9710 223.1865 0012966  71.1029 289.1545 14.91421372 59705
JUGNU                   
1 37839U 11058B   25151.16819668  .00000428  00000+0  84328-4 0  9996
2 37839  19.9600 109.0019 0018704 177.3221 307.4636 14.13600198704902
SRMSAT                  
1 37841U 11058D   25151.47016786  .00000395  00000+0  70665-4 0  9995
2 37841  19.9706 209.6787 0011710 325.6305  62.5700 14.11432981703824
STRAND-1                
1 39090U 13009E   25151.48304200  .00000315  00000+0  12099-3 0  9991
2 39090  98.3826 336.4183 0007542 295.5722  64.4684 14.36811293642245
